IRIDIUM 921             
1 24873U 97034E   24316.27311476  .00149982  00000+0  17632-2 0  9997
2 24873  86.3763 214.3737 0007293  71.2233 288.9823 15.60924025497920
IRIDIUM 26              
1 24903U 97043A   24316.16184224  .00001674  00000+0  56085-3 0  9999
2 24903  86.4012 202.0973 0002379  82.8900 277.2568 14.36787714425435
IRIDIUM 22              
1 24907U 97043E   24316.12334495  .00001549  00000+0  53052-3 0  9998
2 24907  86.4016 205.4627 0002129  81.0808 279.0630 14.35640954425485
DUMMY MASS 1            
1 24925U 97048A   24316.49269887  .00001689  00000+0  18741-3 0  9996
2 24925  86.3373 235.8852 0006279 176.4391 183.6879 14.86608699472789
DUMMY MASS 2            
1 24926U 97048B   24316.21678373  .00001780  00000+0  19882-3 0  9990
2 24926  86.3369 237.5807 0006468 191.7927 168.3148 14.86363319472527
IRIDIUM 29              
1 24944U 97051A   24316.49832248  .00001672  00000+0  56816-3 0  9995
2 24944  86.3982 235.1093 0002068  84.0735 276.0697 14.36098232422022
IRIDIUM 33              
1 24946U 97051C   24316.52828173  .00001184  00000+0  41182-3 0  9991
2 24946  86.3898 234.3439 0010072  72.0264 288.2029 14.34642153421537
IRIDIUM 28              
1 24948U 97051E   24316.26533674  .00001738  00000+0  57963-3 0  9992
2 24948  86.3990 232.8470 0002720  82.1840 277.9666 14.37046400422543
